{
  "type": "FeatureCollection",
  "features": [
    {
      "type": "Feature",
      "properties": {
        "norad_id": 40118,
        "name": "GAOFEN-2",
        "group": "resource",
        "lat": -3.7601006950603053,
        "lon": -123.5532881316148,
        "alt_km": 632.0517977643249,
        "timestamp": "2025-12-23T18:59:31.647256+00:00",
        "meta_object_name": "GAOFEN-2",
        "meta_object_id": "2014-049A",
        "meta_epoch": "2025-12-23T06:48:45.415008",
        "meta_mean_motion": 14.80627174,
        "meta_eccentricity": 0.00087937,
        "meta_inclination": 98.0371,
        "meta_ra_of_asc_node": 56.4705,
        "meta_arg_of_pericenter": 83.8964,
        "meta_mean_anomaly": 276.325,
        "meta_ephemeris_type": 0,
        "meta_classification_type": "U",
        "meta_norad_cat_id": 40118,
        "meta_element_set_no": 999,
        "meta_rev_at_epoch": 61320,
        "meta_bstar": 0.00014331332,
        "meta_mean_motion_dot": 1.047e-05,
        "meta_mean_motion_ddot": 0,
        "tle_line1": "1 40118U 14049A   25357.28385897  .00001047  00000+0  14331-3 0  9990",
        "tle_line2": "2 40118  98.0371  56.4705 0008793  83.8964 276.3250 14.80627174613203"
      },
      "geometry": {
        "type": "Point",
        "coordinates": [
          -123.5532881316148,
          -3.7601006950603053
        ]
      }
    },
    {
      "type": "Feature",
      "properties": {
        "norad_id": 40143,
        "name": "YAOGAN-21",
        "group": "resource",
        "lat": 58.30852713134288,
        "lon": 28.85205870784634,
        "alt_km": 485.3331286629509,
        "timestamp": "2025-12-23T18:59:31.647265+00:00",
        "meta_object_name": "YAOGAN-21",
        "meta_object_id": "2014-053A",
        "meta_epoch": "2025-12-23T07:42:07.087104",
        "meta_mean_motion": 15.23776357,
        "meta_eccentricity": 0.00087119,
        "meta_inclination": 97.1739,
        "meta_ra_of_asc_node": 40.1734,
        "meta_arg_of_pericenter": 6.9257,
        "meta_mean_anomaly": 353.2099,
        "meta_ephemeris_type": 0,
        "meta_classification_type": "U",
        "meta_norad_cat_id": 40143,
        "meta_element_set_no": 999,
        "meta_rev_at_epoch": 62815,
        "meta_bstar": 0.00019519384,
        "meta_mean_motion_dot": 4.633e-05,
        "meta_mean_motion_ddot": 0,
        "tle_line1": "1 40143U 14053A   25357.32091536  .00004633  00000+0  19519-3 0  9999",
        "tle_line2": "2 40143  97.1739  40.1734 0008711   6.9257 353.2099 15.23776357628154"
      },
      "geometry": {
        "type": "Point",
        "coordinates": [
          28.85205870784634,
          58.30852713134288
        ]
      }
    },
    {
      "type": "Feature",
      "properties": {
        "norad_id": 40275,
        "name": "YAOGAN-22",
        "group": "resource",
        "lat": -77.9454234542736,
        "lon": -101.37436905556886,
        "alt_km": 1205.7284040906898,
        "timestamp": "2025-12-23T18:59:31.647275+00:00",
        "meta_object_name": "YAOGAN-22",
        "meta_object_id": "2014-063A",
        "meta_epoch": "2025-12-23T03:02:59.112384",
        "meta_mean_motion": 13.15523006,
        "meta_eccentricity": 0.00060672,
        "meta_inclination": 100.7429,
        "meta_ra_of_asc_node": 140.6935,
        "meta_arg_of_pericenter": 223.3805,
        "meta_mean_anomaly": 136.6829,
        "meta_ephemeris_type": 0,
        "meta_classification_type": "U",
        "meta_norad_cat_id": 40275,
        "meta_element_set_no": 999,
        "meta_rev_at_epoch": 53666,
        "meta_bstar": 0.00010140547,
        "meta_mean_motion_dot": -8e-08,
        "meta_mean_motion_ddot": 0,
        "tle_line1": "1 40275U 14063A   25357.12707306 -.00000008  00000+0  10141-3 0  9998",
        "tle_line2": "2 40275 100.7429 140.6935 0006067 223.3805 136.6829 13.15523006536660"
      },
      "geometry": {
        "type": "Point",
        "coordinates": [
          -101.37436905556886,
          -77.9454234542736
        ]
      }
    },
    {
      "type": "Feature",
      "properties": {
        "norad_id": 40298,
        "name": "ASNARO",
        "group": "resource",
        "lat": -56.20307918823167,
        "lon": 84.60884243802586,
        "alt_km": 517.2160068635512,
        "timestamp": "2025-12-23T18:59:31.647284+00:00",
        "meta_object_name": "ASNARO",
        "meta_object_id": "2014-070A",
        "meta_epoch": "2025-12-23T06:36:01.068768",
        "meta_mean_motion": 15.19704806,
        "meta_eccentricity": 0.00057882,
        "meta_inclination": 97.3644,
        "meta_ra_of_asc_node": 72.9642,
        "meta_arg_of_pericenter": 94.0959,
        "meta_mean_anomaly": 266.0937,
        "meta_ephemeris_type": 0,
        "meta_classification_type": "U",
        "meta_norad_cat_id": 40298,
        "meta_element_set_no": 999,
        "meta_rev_at_epoch": 61729,
        "meta_bstar": 0.00064728004,
        "meta_mean_motion_dot": 0.00013776,
        "meta_mean_motion_ddot": 0,
        "tle_line1": "1 40298U 14070A   25357.27501237  .00013776  00000+0  64728-3 0  9997",
        "tle_line2": "2 40298  97.3644  72.9642 0005788  94.0959 266.0937 15.19704806617291"
      },
      "geometry": {
        "type": "Point",
        "coordinates": [
          84.60884243802586,
          -56.20307918823167
        ]
      }
    },
    {
      "type": "Feature",
      "properties": {
        "norad_id": 40310,
        "name": "YAOGAN-24",
        "group": "resource",
        "lat": -8.84253521856788,
        "lon": 130.2171272741281,
        "alt_km": 649.7200950235465,
        "timestamp": "2025-12-23T18:59:31.647293+00:00",
        "meta_object_name": "YAOGAN-24",
        "meta_object_id": "2014-072A",
        "meta_epoch": "2025-12-23T07:38:42.182592",
        "meta_mean_motion": 14.76195626,
        "meta_eccentricity": 0.00151518,
        "meta_inclination": 98.1231,
        "meta_ra_of_asc_node": 128.4687,
        "meta_arg_of_pericenter": 106.4936,
        "meta_mean_anomaly": 253.794,
        "meta_ephemeris_type": 0,
        "meta_classification_type": "U",
        "meta_norad_cat_id": 40310,
        "meta_element_set_no": 999,
        "meta_rev_at_epoch": 59777,
        "meta_bstar": 8.1278293e-05,
        "meta_mean_motion_dot": 5.1e-06,
        "meta_mean_motion_ddot": 0,
        "tle_line1": "1 40310U 14072A   25357.31854378  .00000510  00000+0  81278-4 0  9998",
        "tle_line2": "2 40310  98.1231 128.4687 0015151 106.4936 253.7940 14.76195626597774"
      },
      "geometry": {
        "type": "Point",
        "coordinates": [
          130.2171272741281,
          -8.84253521856788
        ]
      }
    },
    {
      "type": "Feature",
      "properties": {
        "norad_id": 40336,
        "name": "CBERS 4",
        "group": "resource",
        "lat": -79.59940152067728,
        "lon": 108.38672334937992,
        "alt_km": 782.0002960669644,
        "timestamp": "2025-12-23T18:59:31.647302+00:00",
        "meta_object_name": "CBERS 4",
        "meta_object_id": "2014-079A",
        "meta_epoch": "2025-12-23T07:40:19.487136",
        "meta_mean_motion": 14.35521669,
        "meta_eccentricity": 0.00018663,
        "meta_inclination": 98.3294,
        "meta_ra_of_asc_node": 54.9742,
        "meta_arg_of_pericenter": 101.1393,
        "meta_mean_anomaly": 259.0003,
        "meta_ephemeris_type": 0,
        "meta_classification_type": "U",
        "meta_norad_cat_id": 40336,
        "meta_element_set_no": 999,
        "meta_rev_at_epoch": 57872,
        "meta_bstar": 7.4146347e-05,
        "meta_mean_motion_dot": 1.71e-06,
        "meta_mean_motion_ddot": 0,
        "tle_line1": "1 40336U 14079A   25357.31966999  .00000171  00000+0  74146-4 0  9995",
        "tle_line2": "2 40336  98.3294  54.9742 0001866 101.1393 259.0003 14.35521669578723"
      },
      "geometry": {
        "type": "Point",
        "coordinates": [
          108.38672334937992,
          -79.59940152067728
        ]
      }
    },
    {
      "type": "Feature",
      "properties": {
        "norad_id": 40362,
        "name": "YAOGAN-26",
        "group": "resource",
        "lat": 39.287669801020876,
        "lon": -7.75027474771134,
        "alt_km": 441.84230627365105,
        "timestamp": "2025-12-23T18:59:31.647311+00:00",
        "meta_object_name": "YAOGAN-26",
        "meta_object_id": "2014-088A",
        "meta_epoch": "2025-12-23T06:20:32.371584",
        "meta_mean_motion": 15.39662995,
        "meta_eccentricity": 0.00047207,
        "meta_inclination": 97.0643,
        "meta_ra_of_asc_node": 357.5642,
        "meta_arg_of_pericenter": 356.5887,
        "meta_mean_anomaly": 3.5327,
        "meta_ephemeris_type": 0,
        "meta_classification_type": "U",
        "meta_norad_cat_id": 40362,
        "meta_element_set_no": 999,
        "meta_rev_at_epoch": 61056,
        "meta_bstar": 0.00069602247,
        "meta_mean_motion_dot": 0.00027458,
        "meta_mean_motion_ddot": 0,
        "tle_line1": "1 40362U 14088A   25357.26426356  .00027458  00000+0  69602-3 0  9993",
        "tle_line2": "2 40362  97.0643 357.5642 0004720 356.5887   3.5327 15.39662995610566"
      },
      "geometry": {
        "type": "Point",
        "coordinates": [
          -7.75027474771134,
          39.287669801020876
        ]
      }
    }
  ]
}